ONEWEB-0628             
1 55169U 23004AF  25021.70017902  .00000085  00000+0  20041-3 0  9993
2 55169  87.8861  92.4843 0001684  77.7503 282.3814 13.12445091100946
ONEWEB-0629             
1 55170U 23004AG  25021.75933396  .00000067  00000+0  13869-3 0  9994
2 55170  87.9087 107.7592 0001360 100.1586 259.9699 13.17648219100238
ONEWEB-0631             
1 55171U 23004AH  25021.69342007 -.00000019  00000+0 -80454-4 0  9995
2 55171  87.9083  77.1773 0002421  95.8444 264.2964 13.18685353102268
ONEWEB-0709             
1 55172U 23004AJ  25021.78709614  .00000205  00000+0  54273-3 0  9991
2 55172  87.8908 123.0307 0002668 113.0680 247.0730 13.11417946 98848
ONEWEB-0710             
1 55173U 23004AK  25021.77369173  .00000131  00000+0  30303-3 0  9999
2 55173  87.9087 107.7803 0001765  99.4747 260.6584 13.17649303100231
ONEWEB-0711             
1 55174U 23004AL  25021.75826095 -.00000452  00000+0 -13126-2 0  9990
2 55174  87.8904 123.0047 0001768  78.7206 281.4121 13.11415950 98803
ONEWEB-0713             
1 55175U 23004AM  25021.77690822 -.00000173  00000+0 -52277-3 0  9991
2 55175  87.8905 123.0089 0001639  94.1629 265.9687 13.11418502 98797
ONEWEB-0715             
1 55176U 23004AN  25021.77181876 -.00000474  00000+0 -13727-2 0  9996
2 55176  87.8906 123.0101 0002086 104.2181 255.9179 13.11417259 98835
